{
  "type": "FeatureCollection",
  "features": [
    {
      "type": "Feature",
      "properties": {
        "norad_id": 39160,
        "name": "VNREDSAT 1",
        "group": "resource",
        "lat": -51.26422385135897,
        "lon": -150.44595187114655,
        "alt_km": 685.1242639051334,
        "timestamp": "2025-12-10T04:57:29.262569+00:00",
        "meta_object_name": "VNREDSAT 1",
        "meta_object_id": "2013-021B",
        "meta_epoch": "2025-12-09T19:42:22.900032",
        "meta_mean_motion": 14.64915794,
        "meta_eccentricity": 0.0001315,
        "meta_inclination": 97.9372,
        "meta_ra_of_asc_node": 39.198,
        "meta_arg_of_pericenter": 78.3799,
        "meta_mean_anomaly": 281.7552,
        "meta_ephemeris_type": 0,
        "meta_classification_type": "U",
        "meta_norad_cat_id": 39160,
        "meta_element_set_no": 999,
        "meta_rev_at_epoch": 67256,
        "meta_bstar": 0.00018533,
        "meta_mean_motion_dot": 9.45e-06,
        "meta_mean_motion_ddot": 0,
        "tle_line1": "1 39160U 13021B   25343.82109838  .00000945  00000+0  18533-3 0  9992",
        "tle_line2": "2 39160  97.9372  39.1980 0001315  78.3799 281.7552 14.64915794672567"
      },
      "geometry": {
        "type": "Point",
        "coordinates": [
          -150.44595187114655,
          -51.26422385135897
        ]
      }
    },
    {
      "type": "Feature",
      "properties": {
        "norad_id": 39227,
        "name": "ARIRANG-5 (KOMPSAT-5)",
        "group": "resource",
        "lat": -49.58429777963251,
        "lon": 177.58576834447445,
        "alt_km": 561.0133015873198,
        "timestamp": "2025-12-10T04:57:29.262580+00:00",
        "meta_object_name": "ARIRANG-5 (KOMPSAT-5)",
        "meta_object_id": "2013-042A",
        "meta_epoch": "2025-12-09T19:36:12.410784",
        "meta_mean_motion": 15.04486305,
        "meta_eccentricity": 0.0003927,
        "meta_inclination": 97.6143,
        "meta_ra_of_asc_node": 168.1633,
        "meta_arg_of_pericenter": 63.1381,
        "meta_mean_anomaly": 297.0246,
        "meta_ephemeris_type": 0,
        "meta_classification_type": "U",
        "meta_norad_cat_id": 39227,
        "meta_element_set_no": 999,
        "meta_rev_at_epoch": 67538,
        "meta_bstar": 0.00023214,
        "meta_mean_motion_dot": 3.188e-05,
        "meta_mean_motion_ddot": 0,
        "tle_line1": "1 39227U 13042A   25343.81681031  .00003188  00000+0  23214-3 0  9992",
        "tle_line2": "2 39227  97.6143 168.1633 0003927  63.1381 297.0246 15.04486305675381"
      },
      "geometry": {
        "type": "Point",
        "coordinates": [
          177.58576834447445,
          -49.58429777963251
        ]
      }
    },
    {
      "type": "Feature",
      "properties": {
        "norad_id": 39418,
        "name": "SKYSAT-A",
        "group": "resource",
        "lat": -76.37261613127028,
        "lon": -177.980885309795,
        "alt_km": 524.7744121929372,
        "timestamp": "2025-12-10T04:57:29.262590+00:00",
        "meta_object_name": "SKYSAT-A",
        "meta_object_id": "2013-066C",
        "meta_epoch": "2025-12-09T16:41:44.729376",
        "meta_mean_motion": 15.11568128,
        "meta_eccentricity": 0.0020687,
        "meta_inclination": 97.4109,
        "meta_ra_of_asc_node": 33.9964,
        "meta_arg_of_pericenter": 247.9762,
        "meta_mean_anomaly": 111.9271,
        "meta_ephemeris_type": 0,
        "meta_classification_type": "U",
        "meta_norad_cat_id": 39418,
        "meta_element_set_no": 999,
        "meta_rev_at_epoch": 65984,
        "meta_bstar": 0.00038112,
        "meta_mean_motion_dot": 6.436e-05,
        "meta_mean_motion_ddot": 0,
        "tle_line1": "1 39418U 13066C   25343.69565659  .00006436  00000+0  38112-3 0  9995",
        "tle_line2": "2 39418  97.4109  33.9964 0020687 247.9762 111.9271 15.11568128659843"
      },
      "geometry": {
        "type": "Point",
        "coordinates": [
          -177.980885309795,
          -76.37261613127028
        ]
      }
    },
    {
      "type": "Feature",
      "properties": {
        "norad_id": 39419,
        "name": "DUBAISAT-2",
        "group": "resource",
        "lat": 68.88478144607852,
        "lon": -45.10139090138566,
        "alt_km": 535.9986281995507,
        "timestamp": "2025-12-10T04:57:29.262600+00:00",
        "meta_object_name": "DUBAISAT-2",
        "meta_object_id": "2013-066D",
        "meta_epoch": "2025-12-09T20:41:14.733312",
        "meta_mean_motion": 15.08309774,
        "meta_eccentricity": 0.0010951,
        "meta_inclination": 97.445,
        "meta_ra_of_asc_node": 334.3575,
        "meta_arg_of_pericenter": 331.3312,
        "meta_mean_anomaly": 28.7313,
        "meta_ephemeris_type": 0,
        "meta_classification_type": "U",
        "meta_norad_cat_id": 39419,
        "meta_element_set_no": 999,
        "meta_rev_at_epoch": 65783,
        "meta_bstar": 0.00040604,
        "meta_mean_motion_dot": 6.248e-05,
        "meta_mean_motion_ddot": 0,
        "tle_line1": "1 39419U 13066D   25343.86197608  .00006248  00000+0  40604-3 0  9990",
        "tle_line2": "2 39419  97.4450 334.3575 0010951 331.3312  28.7313 15.08309774657836"
      },
      "geometry": {
        "type": "Point",
        "coordinates": [
          -45.10139090138566,
          68.88478144607852
        ]
      }
    },
    {
      "type": "Feature",
      "properties": {
        "norad_id": 39574,
        "name": "GPM-CORE",
        "group": "resource",
        "lat": -41.84863320267512,
        "lon": 65.9003839996946,
        "alt_km": 430.33308556211523,
        "timestamp": "2025-12-10T04:57:29.262611+00:00",
        "meta_object_name": "GPM-CORE",
        "meta_object_id": "2014-009C",
        "meta_epoch": "2025-12-09T18:39:31.330080",
        "meta_mean_motion": 15.45457187,
        "meta_eccentricity": 0.0010516,
        "meta_inclination": 64.9737,
        "meta_ra_of_asc_node": 222.6027,
        "meta_arg_of_pericenter": 270.0694,
        "meta_mean_anomaly": 89.9242,
        "meta_ephemeris_type": 0,
        "meta_classification_type": "U",
        "meta_norad_cat_id": 39574,
        "meta_element_set_no": 999,
        "meta_rev_at_epoch": 66855,
        "meta_bstar": 0.00041792,
        "meta_mean_motion_dot": 0.0001997,
        "meta_mean_motion_ddot": 0,
        "tle_line1": "1 39574U 14009C   25343.77744595  .00019970  00000+0  41792-3 0  9998",
        "tle_line2": "2 39574  64.9737 222.6027 0010516 270.0694  89.9242 15.45457187668559"
      },
      "geometry": {
        "type": "Point",
        "coordinates": [
          65.9003839996946,
          -41.84863320267512
        ]
      }
    },
    {
      "type": "Feature",
      "properties": {
        "norad_id": 39634,
        "name": "SENTINEL-1A",
        "group": "resource",
        "lat": 34.58308082106897,
        "lon": 175.17627264547235,
        "alt_km": 693.0549363068085,
        "timestamp": "2025-12-10T04:57:29.262621+00:00",
        "meta_object_name": "SENTINEL-1A",
        "meta_object_id": "2014-016A",
        "meta_epoch": "2025-12-09T20:04:03.935424",
        "meta_mean_motion": 14.59200064,
        "meta_eccentricity": 0.0001268,
        "meta_inclination": 98.1802,
        "meta_ra_of_asc_node": 349.12,
        "meta_arg_of_pericenter": 85.4405,
        "meta_mean_anomaly": 274.6939,
        "meta_ephemeris_type": 0,
        "meta_classification_type": "U",
        "meta_norad_cat_id": 39634,
        "meta_element_set_no": 999,
        "meta_rev_at_epoch": 62240,
        "meta_bstar": 2.3371e-05,
        "meta_mean_motion_dot": 6.4e-07,
        "meta_mean_motion_ddot": 0,
        "tle_line1": "1 39634U 14016A   25343.83615666  .00000064  00000+0  23371-4 0  9994",
        "tle_line2": "2 39634  98.1802 349.1200 0001268  85.4405 274.6939 14.59200064622402"
      },
      "geometry": {
        "type": "Point",
        "coordinates": [
          175.17627264547235,
          34.58308082106897
        ]
      }
    },
    {
      "type": "Feature",
      "properties": {
        "norad_id": 39731,
        "name": "KAZEOSAT 1",
        "group": "resource",
        "lat": -80.04260150458433,
        "lon": 112.88045098522268,
        "alt_km": 759.8063609590281,
        "timestamp": "2025-12-10T04:57:29.262631+00:00",
        "meta_object_name": "KAZEOSAT 1",
        "meta_object_id": "2014-024A",
        "meta_epoch": "2025-12-09T19:21:29.783808",
        "meta_mean_motion": 14.42059739,
        "meta_eccentricity": 0.0001081,
        "meta_inclination": 98.3433,
        "meta_ra_of_asc_node": 55.7795,
        "meta_arg_of_pericenter": 93.0017,
        "meta_mean_anomaly": 267.1297,
        "meta_ephemeris_type": 0,
        "meta_classification_type": "U",
        "meta_norad_cat_id": 39731,
        "meta_element_set_no": 999,
        "meta_rev_at_epoch": 61126,
        "meta_bstar": 0.00011233,
        "meta_mean_motion_dot": 3.26e-06,
        "meta_mean_motion_ddot": 0,
        "tle_line1": "1 39731U 14024A   25343.80659472  .00000326  00000+0  11233-3 0  9995",
        "tle_line2": "2 39731  98.3433  55.7795 0001081  93.0017 267.1297 14.42059739611267"
      },
      "geometry": {
        "type": "Point",
        "coordinates": [
          112.88045098522268,
          -80.04260150458433
        ]
      }
    }
  ]
}